ONEWEB-0319             
1 49105U 21075AG  24292.06372766  .00000152  00000+0  35703-3 0  9998
2 49105  87.9082 126.8310 0001115  83.7577 276.3682 13.17650723154640
ONEWEB-0323             
1 49106U 21075AH  24291.73544274  .00002448  00000+0  67664-2 0  9997
2 49106  87.8840 111.6327 0001007  85.7580 274.3664 13.12452639154872
ONEWEB-0329             
1 49107U 21075AJ  24291.46468647  .00000055  00000+0  10746-3 0  9999
2 49107  87.9086 126.9546 0001396  78.1774 281.9514 13.17650179154546
ONEWEB-0330             
1 49108U 21075AK  24291.54230645  .00000098  00000+0  21808-3 0  9992
2 49108  87.9087 126.9404 0001530  72.6534 287.4765 13.17649584154596
ONEWEB-0292             
1 49186U 21083A   24291.64797410  .00000352  00000+0  92825-3 0  9996
2 49186  87.8877  81.1202 0001502  99.0653 261.0646 13.13472435151172
ONEWEB-0303             
1 49187U 21083B   24291.76181347  .00000099  00000+0  21714-3 0  9993
2 49187  87.9058  96.3442 0001438  93.5040 266.6256 13.18686838149923
ONEWEB-0306             
1 49188U 21083C   24292.20757412  .00000058  00000+0  11410-3 0  9993
2 49188  87.9057  96.2416 0001757  85.4210 274.7123 13.18682787151303
ONEWEB-0307             
1 49189U 21083D   24291.87097383  .00000438  00000+0  11655-2 0  9992
2 49189  87.8881  81.0774 0001811  84.1466 275.9869 13.13470712152496
